[
    {
        "Altitude(m)": 622200.0770425922,
        "Argument of Periapsis(deg)": 0.0,
        "Eccentricity": 0.0,
        "Inclination(deg)": 60.0,
        "Latitude(deg)": -52.16245499070134,
        "Longitude(deg)": 77.3608032140486,
        "Mean Anomaly(deg)": -65.45449999999998,
        "RAAN(deg)": 225.0,
        "Satellite Name": "Test1 1008",
        "Satellite Number": 1008,
        "Semi-Major Axis(m)": 6980739.136638005,
        "Time(s)": 0
    },
    {
        "Altitude(m)": 622058.2445076061,
        "Argument of Periapsis(deg)": 0.00010418945913296404,
        "Eccentricity": 0.0,
        "Inclination(deg)": 60.0,
        "Latitude(deg)": -51.7992041149486,
        "Longitude(deg)": 78.12885902401149,
        "Mean Anomaly(deg)": -64.83439385453813,
        "RAAN(deg)": 224.99957995086024,
        "Satellite Name": "Test1 1008",
        "Satellite Number": 1008,
        "Semi-Major Axis(m)": 6980739.136638005,
        "Time(s)": 10
    }
]